
<OBJECT_NAME>COSMOS 1742 DEB</OBJECT_NAME>
<OBJECT_ID>1986-033H</OBJECT_ID>
<CENTER_NAME>EARTH</CENTER_NAME>
<REF_FRAME>TEME</REF_FRAME>
<TIME_SYSTEM>UTC</TIME_SYSTEM>
<MEAN_ELEMENT_THEORY>SGP4</MEAN_ELEMENT_THEORY>
</metadata>
<data>
<meanElements>
<EPOCH>1986-10-31T03:50:20.508576</EPOCH>
<MEAN_MOTION>16.36319604</MEAN_MOTION>
<ECCENTRICITY>0.00053300</ECCENTRICITY>
<INCLINATION>72.8602</INCLINATION>
<RA_OF_ASC_NODE>15.5597</RA_OF_ASC_NODE>
<ARG_OF_PERICENTER>280.8750</ARG_OF_PERICENTER>
<MEAN_ANOMALY>79.5694</MEAN_ANOMALY>
Altitude 176

From <https://www.space-track.org/basicspacedata/query/class/gp/NORAD_CAT_ID/16744/format/xml/emptyresult/show> 


<OBJECT_NAME>COSMOS 1804 DEB</OBJECT_NAME>
<OBJECT_ID>1986-095C</OBJECT_ID>
<CENTER_NAME>EARTH</CENTER_NAME>
<REF_FRAME>TEME</REF_FRAME>
<TIME_SYSTEM>UTC</TIME_SYSTEM>
<MEAN_ELEMENT_THEORY>SGP4</MEAN_ELEMENT_THEORY>
</metadata>
<data>
<meanElements>
<EPOCH>1987-09-04T10:22:04.812096</EPOCH>
<MEAN_MOTION>16.31237987</MEAN_MOTION>
<ECCENTRICITY>0.00148520</ECCENTRICITY>
<INCLINATION>69.9497</INCLINATION>
<RA_OF_ASC_NODE>241.5067</RA_OF_ASC_NODE>
<ARG_OF_PERICENTER>226.6197</ARG_OF_PERICENTER>
<MEAN_ANOMALY>134.6606</MEAN_ANOMALY>
Altitude 189

From <https://www.space-track.org/basicspacedata/query/class/gp/NORAD_CAT_ID/17243/format/xml/emptyresult/show> 


<OBJECT_NAME>COSMOS 1976 DEB</OBJECT_NAME>
<OBJECT_ID>1988-094E</OBJECT_ID>
<CENTER_NAME>EARTH</CENTER_NAME>
<REF_FRAME>TEME</REF_FRAME>
<TIME_SYSTEM>UTC</TIME_SYSTEM>
<MEAN_ELEMENT_THEORY>SGP4</MEAN_ELEMENT_THEORY>
</metadata>
<data>
<meanElements>
<EPOCH>1988-12-16T01:57:07.106400</EPOCH>
<MEAN_MOTION>16.11295031</MEAN_MOTION>
<ECCENTRICITY>0.00129560</ECCENTRICITY>
<INCLINATION>72.8446</INCLINATION>
<RA_OF_ASC_NODE>41.7790</RA_OF_ASC_NODE>
<ARG_OF_PERICENTER>39.5976</ARG_OF_PERICENTER>
<MEAN_ANOMALY>320.5950</MEAN_ANOMALY>
Altitude 279

From <https://www.space-track.org/basicspacedata/query/class/gp/NORAD_CAT_ID/19616/format/xml/emptyresult/show> 


<OBJECT_NAME>DELTA 1 DEB</OBJECT_NAME>
<OBJECT_ID>1975-004AN</OBJECT_ID>
<CENTER_NAME>EARTH</CENTER_NAME>
<REF_FRAME>TEME</REF_FRAME>
<TIME_SYSTEM>UTC</TIME_SYSTEM>
<MEAN_ELEMENT_THEORY>SGP4</MEAN_ELEMENT_THEORY>
</metadata>
<data>
<meanElements>
<EPOCH>2025-12-17T08:18:04.270464</EPOCH>
<MEAN_MOTION>14.85678633</MEAN_MOTION>
<ECCENTRICITY>0.00243387</ECCENTRICITY>
<INCLINATION>98.3594</INCLINATION>
<RA_OF_ASC_NODE>163.4976</RA_OF_ASC_NODE>
<ARG_OF_PERICENTER>143.4308</ARG_OF_PERICENTER>
<MEAN_ANOMALY>216.8573</MEAN_ANOMALY>
Altitude 610

From <https://www.space-track.org/basicspacedata/query/class/gp/NORAD_CAT_ID/8956/format/xml/emptyresult/show> 

<OBJECT_NAME>ARIANE 1 DEB</OBJECT_NAME>
<OBJECT_ID>1986-019AA</OBJECT_ID>
<CENTER_NAME>EARTH</CENTER_NAME>
<REF_FRAME>TEME</REF_FRAME>
<TIME_SYSTEM>UTC</TIME_SYSTEM>
<MEAN_ELEMENT_THEORY>SGP4</MEAN_ELEMENT_THEORY>
</metadata>
<data>
<meanElements>
<EPOCH>2002-12-07T23:24:38.176703</EPOCH>
<MEAN_MOTION>16.31202063</MEAN_MOTION>
<ECCENTRICITY>0.00094960</ECCENTRICITY>
<INCLINATION>97.8114</INCLINATION>
<RA_OF_ASC_NODE>60.4182</RA_OF_ASC_NODE>
<ARG_OF_PERICENTER>293.7771</ARG_OF_PERICENTER>
<MEAN_ANOMALY>66.3855</MEAN_ANOMALY>
Altitude 190

From <https://www.space-track.org/basicspacedata/query/class/gp/NORAD_CAT_ID/17131/format/xml/emptyresult/show> 
<OBJECT_NAME>SL-24 DEB</OBJECT_NAME>
<OBJECT_ID>2008-040G</OBJECT_ID>
<CENTER_NAME>EARTH</CENTER_NAME>
<REF_FRAME>TEME</REF_FRAME>
<TIME_SYSTEM>UTC</TIME_SYSTEM>
<MEAN_ELEMENT_THEORY>SGP4</MEAN_ELEMENT_THEORY>
</metadata>
<data>
<meanElements>
<EPOCH>2025-12-17T06:58:52.260960</EPOCH>
<MEAN_MOTION>15.19989567</MEAN_MOTION>
<ECCENTRICITY>0.00136323</ECCENTRICITY>
<INCLINATION>97.9780</INCLINATION>
<RA_OF_ASC_NODE>276.1766</RA_OF_ASC_NODE>
<ARG_OF_PERICENTER>14.6428</ARG_OF_PERICENTER>
<MEAN_ANOMALY>345.5198</MEAN_ANOMALY>
Altitude 505


From <https://www.space-track.org/basicspacedata/query/class/gp/NORAD_CAT_ID/33318/format/xml/emptyresult/show> 


<OBJECT_NAME>COSMOS 1549 DEB</OBJECT_NAME>
<OBJECT_ID>1984-040E</OBJECT_ID>
<CENTER_NAME>EARTH</CENTER_NAME>
<REF_FRAME>TEME</REF_FRAME>
<TIME_SYSTEM>UTC</TIME_SYSTEM>
<MEAN_ELEMENT_THEORY>SGP4</MEAN_ELEMENT_THEORY>
</metadata>
<data>
<meanElements>
<EPOCH>1984-06-23T01:09:18.284255</EPOCH>
<MEAN_MOTION>16.43563054</MEAN_MOTION>
<ECCENTRICITY>0.00117420</ECCENTRICITY>
<INCLINATION>72.8593</INCLINATION>
<RA_OF_ASC_NODE>230.6482</RA_OF_ASC_NODE>
<ARG_OF_PERICENTER>282.0723</ARG_OF_PERICENTER>
<MEAN_ANOMALY>78.4162</MEAN_ANOMALY>
Altitude 156

From <https://www.space-track.org/basicspacedata/query/class/gp/NORAD_CAT_ID/14954/format/xml/emptyresult/show> 

<OBJECT_NAME>COSMOS 1487 DEB</OBJECT_NAME>
<OBJECT_ID>1983-080E</OBJECT_ID>
<CENTER_NAME>EARTH</CENTER_NAME>
<REF_FRAME>TEME</REF_FRAME>
<TIME_SYSTEM>UTC</TIME_SYSTEM>
<MEAN_ELEMENT_THEORY>SGP4</MEAN_ELEMENT_THEORY>
</metadata>
<data>
<meanElements>
<EPOCH>1983-09-10T23:07:45.067583</EPOCH>
<MEAN_MOTION>16.51123165</MEAN_MOTION>
<ECCENTRICITY>0.00097010</ECCENTRICITY>
<INCLINATION>82.2848</INCLINATION>
<RA_OF_ASC_NODE>77.0688</RA_OF_ASC_NODE>
<ARG_OF_PERICENTER>301.3301</ARG_OF_PERICENTER>
<MEAN_ANOMALY>58.8372</MEAN_ANOMALY>
Altitude 136
</meanElements>

From <https://www.space-track.org/basicspacedata/query/class/gp/NORAD_CAT_ID/14292/format/xml/emptyresult/show> 


<OBJECT_NAME>COSMOS 1530 DEB</OBJECT_NAME>
<OBJECT_ID>1984-002E</OBJECT_ID>
<CENTER_NAME>EARTH</CENTER_NAME>
<REF_FRAME>TEME</REF_FRAME>
<TIME_SYSTEM>UTC</TIME_SYSTEM>
<MEAN_ELEMENT_THEORY>SGP4</MEAN_ELEMENT_THEORY>
</metadata>
<data>
<meanElements>
<EPOCH>1984-03-16T07:17:54.415391</EPOCH>
<MEAN_MOTION>16.27459745</MEAN_MOTION>
<ECCENTRICITY>0.00115150</ECCENTRICITY>
<INCLINATION>72.8109</INCLINATION>
<RA_OF_ASC_NODE>142.2702</RA_OF_ASC_NODE>
<ARG_OF_PERICENTER>342.7407</ARG_OF_PERICENTER>
<MEAN_ANOMALY>17.3390</MEAN_ANOMALY>
Altitude 199

From <https://www.space-track.org/basicspacedata/query/class/gp/NORAD_CAT_ID/14663/format/xml/emptyresult/show> 

<OBJECT_NAME>COSMOS 1683 DEB</OBJECT_NAME>
<OBJECT_ID>1985-083D</OBJECT_ID>
<CENTER_NAME>EARTH</CENTER_NAME>
<REF_FRAME>TEME</REF_FRAME>
<TIME_SYSTEM>UTC</TIME_SYSTEM>
<MEAN_ELEMENT_THEORY>SGP4</MEAN_ELEMENT_THEORY>
</metadata>
<data>
<meanElements>
<EPOCH>1987-12-26T08:52:18.650783</EPOCH>
<MEAN_MOTION>16.53390904</MEAN_MOTION>
<ECCENTRICITY>0.00082370</ECCENTRICITY>
<INCLINATION>72.8484</INCLINATION>
<RA_OF_ASC_NODE>299.5561</RA_OF_ASC_NODE>
<ARG_OF_PERICENTER>247.1735</ARG_OF_PERICENTER>
<MEAN_ANOMALY>112.9774</MEAN_ANOMALY>
Altitude 130
</meanElements>

From <https://www.space-track.org/basicspacedata/query/class/gp/NORAD_CAT_ID/16121/format/xml/emptyresult/show> 

<OBJECT_NAME>COSMOS 1583 DEB</OBJECT_NAME>
<OBJECT_ID>1984-075F</OBJECT_ID>
<CENTER_NAME>EARTH</CENTER_NAME>
<REF_FRAME>TEME</REF_FRAME>
<TIME_SYSTEM>UTC</TIME_SYSTEM>
<MEAN_ELEMENT_THEORY>SGP4</MEAN_ELEMENT_THEORY>
</metadata>
<data>
<meanElements>
<EPOCH>1984-12-19T04:12:28.772927</EPOCH>
<MEAN_MOTION>16.40900586</MEAN_MOTION>
<ECCENTRICITY>0.00093680</ECCENTRICITY>
<INCLINATION>72.8614</INCLINATION>
<RA_OF_ASC_NODE>136.7035</RA_OF_ASC_NODE>
<ARG_OF_PERICENTER>284.8557</ARG_OF_PERICENTER>
<MEAN_ANOMALY>75.1826</MEAN_ANOMALY>
Altitude 153

From <https://www.space-track.org/basicspacedata/query/class/gp/NORAD_CAT_ID/15170/format/xml/emptyresult/show> 

<OBJECT_NAME>SL-12 PLAT</OBJECT_NAME>
<OBJECT_ID>1986-044C</OBJECT_ID>
<CENTER_NAME>EARTH</CENTER_NAME>
<REF_FRAME>TEME</REF_FRAME>
<TIME_SYSTEM>UTC</TIME_SYSTEM>
<MEAN_ELEMENT_THEORY>SGP4</MEAN_ELEMENT_THEORY>
</metadata>
<data>
<meanElements>
<EPOCH>1986-06-10T21:14:03.814367</EPOCH>
<MEAN_MOTION>16.37024808</MEAN_MOTION>
<ECCENTRICITY>0.00102450</ECCENTRICITY>
<INCLINATION>51.6063</INCLINATION>
<RA_OF_ASC_NODE>275.1288</RA_OF_ASC_NODE>
<ARG_OF_PERICENTER>128.0664</ARG_OF_PERICENTER>
<MEAN_ANOMALY>232.1206</MEAN_ANOMALY>
Altitude 174

From <https://www.space-track.org/basicspacedata/query/class/gp/NORAD_CAT_ID/16771/format/xml/emptyresult/show> 



<OBJECT_NAME>SL-8 DEB</OBJECT_NAME>
<OBJECT_ID>1977-060C</OBJECT_ID>
<CENTER_NAME>EARTH</CENTER_NAME>
<REF_FRAME>TEME</REF_FRAME>
<TIME_SYSTEM>UTC</TIME_SYSTEM>
<MEAN_ELEMENT_THEORY>SGP4</MEAN_ELEMENT_THEORY>
</metadata>
<data>
<meanElements>
<EPOCH>1978-02-16T23:00:12.799872</EPOCH>
<MEAN_MOTION>15.24243350</MEAN_MOTION>
<ECCENTRICITY>0.00357500</ECCENTRICITY>
<INCLINATION>73.9835</INCLINATION>
<RA_OF_ASC_NODE>242.5328</RA_OF_ASC_NODE>
<ARG_OF_PERICENTER>94.4827</ARG_OF_PERICENTER>
<MEAN_ANOMALY>277.4375</MEAN_ANOMALY>
Altitude 490

From <https://www.space-track.org/basicspacedata/query/class/gp/NORAD_CAT_ID/10131/format/xml/emptyresult/show> 

<OBJECT_NAME>CZ-2D DEB</OBJECT_NAME>
<OBJECT_ID>2023-194D</OBJECT_ID>
<CENTER_NAME>EARTH</CENTER_NAME>
<REF_FRAME>TEME</REF_FRAME>
<TIME_SYSTEM>UTC</TIME_SYSTEM>
<MEAN_ELEMENT_THEORY>SGP4</MEAN_ELEMENT_THEORY>
</metadata>
<data>
<meanElements>
<EPOCH>2024-09-01T04:26:16.289664</EPOCH>
<MEAN_MOTION>16.26702568</MEAN_MOTION>
<ECCENTRICITY>0.00096450</ECCENTRICITY>
<INCLINATION>34.9719</INCLINATION>
<RA_OF_ASC_NODE>159.5975</RA_OF_ASC_NODE>
<ARG_OF_PERICENTER>281.4908</ARG_OF_PERICENTER>
<MEAN_ANOMALY>199.9197</MEAN_ANOMALY>
Altitude 200

From <https://www.space-track.org/basicspacedata/query/class/gp/NORAD_CAT_ID/58560/format/xml/emptyresult/show> 

